{"type": "FeatureCollection", "features": [ {"type": "Feature", "properties": {"norad_id": 66396, "name": "STARLINK-35669", "group": "last-30-days", "lat": 16.951892881781482, "lon": -59.89744216536147, "alt_km": 445.413419385869, "timestamp": "2025-12-07T22:37:41.855570+00:00", "meta": {"OBJECT_NAME": "STARLINK-35669", "OBJECT_ID": "2025-257S", "EPOCH": "2025-12-07T06:00:04.999968", "MEAN_MOTION": 15.3954627, "ECCENTRICITY": 8.467e-05, "INCLINATION": 53.1591, "RA_OF_ASC_NODE": 290.1573, "ARG_OF_PERICENTER": 97.6495, "MEAN_ANOMALY": 41.8181, "EPHEMERIS_TYPE": 0, "CLASSIFICATION_TYPE": "U", "NORAD_CAT_ID": 66396, "ELEMENT_SET_NO": 999, "REV_AT_EPOCH": 561, "BSTAR": 0.0022414474, "MEAN_MOTION_DOT": 0.00090103, "MEAN_MOTION_DDOT": 0}, "tle": {"line1": "1 66396U 25257S   25341.25005787  .00090103  00000+0  22414-2 0  9997", "line2": "2 66396  53.1591 290.1573 0000846  97.6495  41.8181 15.39546270  5618"}}, "geometry": {"type": "Point", "coordinates": [-59.89744216536147, 16.951892881781482]}}, {"type": "Feature", "properties": {"norad_id": 66397, "name": "STARLINK-35510", "group": "last-30-days", "lat": 34.55754593289346, "lon": -42.065300738833855, "alt_km": 443.0996467156374, "timestamp": "2025-12-07T22:37:41.855581+00:00", "meta": {"OBJECT_NAME": "STARLINK-35510", "OBJECT_ID": "2025-257T", "EPOCH": "2025-12-07T06:00:04.999968", "MEAN_MOTION": 15.39749152, "ECCENTRICITY": 9.319e-05, "INCLINATION": 53.1596, "RA_OF_ASC_NODE": 290.1099, "ARG_OF_PERICENTER": 92.2243, "MEAN_ANOMALY": 71.0782, "EPHEMERIS_TYPE": 0, "CLASSIFICATION_TYPE": "U", "NORAD_CAT_ID": 66397, "ELEMENT_SET_NO": 999, "REV_AT_EPOCH": 561, "BSTAR": -0.0062709743, "MEAN_MOTION_DOT": -0.00244395, "MEAN_MOTION_DDOT": 0}, "tle": {"line1": "1 66397U 25257T   25341.25005787 -.00244395  00000+0 -62710-2 0  9997", "line2": "2 66397  53.1596 290.1099 0000931  92.2243  71.0782 15.39749152  5610"}}, "geometry": {"type": "Point", "coordinates": [-42.065300738833855, 34.55754593289346]}}, {"type": "Feature", "properties": {"norad_id": 66398, "name": "STARLINK-35642", "group": "last-30-days", "lat": 53.12707887709534, "lon": 18.450350363124763, "alt_km": 418.28839521174723, "timestamp": "2025-12-07T22:37:41.855592+00:00", "meta": {"OBJECT_NAME": "STARLINK-35642", "OBJECT_ID": "2025-257U", "EPOCH": "2025-12-06T12:07:51.672288", "MEAN_MOTION": 15.47370943, "ECCENTRICITY": 0.00013279, "INCLINATION": 53.1588, "RA_OF_ASC_NODE": 293.6043, "ARG_OF_PERICENTER": 337.02, "MEAN_ANOMALY": 23.0748, "EPHEMERIS_TYPE": 0, "CLASSIFICATION_TYPE": "U", "NORAD_CAT_ID": 66398, "ELEMENT_SET_NO": 999, "REV_AT_EPOCH": 541, "BSTAR": -0.0016841025, "MEAN_MOTION_DOT": -0.00086994, "MEAN_MOTION_DDOT": 0}, "tle": {"line1": "1 66398U 25257U   25340.50545917 -.00086994  00000+0 -16841-2 0  9992", "line2": "2 66398  53.1588 293.6043 0001327 337.0200  23.0748 15.47370943  5416"}}, "geometry": {"type": "Point", "coordinates": [18.450350363124763, 53.12707887709534]}}, {"type": "Feature", "properties": {"norad_id": 66399, "name": "STARLINK-35657", "group": "last-30-days", "lat": 35.879039716927466, "lon": -40.31962102743443, "alt_km": 442.3421364703363, "timestamp": "2025-12-07T22:37:41.855603+00:00", "meta": {"OBJECT_NAME": "STARLINK-35657", "OBJECT_ID": "2025-257V", "EPOCH": "2025-12-07T06:00:04.999968", "MEAN_MOTION": 15.39505365, "ECCENTRICITY": 0.00010937, "INCLINATION": 53.1596, "RA_OF_ASC_NODE": 290.1056, "ARG_OF_PERICENTER": 121.4537, "MEAN_ANOMALY": 43.7738, "EPHEMERIS_TYPE": 0, "CLASSIFICATION_TYPE": "U", "NORAD_CAT_ID": 66399, "ELEMENT_SET_NO": 999, "REV_AT_EPOCH": 561, "BSTAR": 0.0028689679, "MEAN_MOTION_DOT": 0.00115675, "MEAN_MOTION_DDOT": 0}, "tle": {"line1": "1 66399U 25257V   25341.25005787  .00115675  00000+0  28690-2 0  9994", "line2": "2 66399  53.1596 290.1056 0001093 121.4537  43.7738 15.39505365  5619"}}, "geometry": {"type": "Point", "coordinates": [-40.31962102743443, 35.879039716927466]}}, {"type": "Feature", "properties": {"norad_id": 66400, "name": "STARLINK-35667", "group": "last-30-days", "lat": 52.6852256985385, "lon": 27.107832150756327, "alt_km": 423.70309263566287, "timestamp": "2025-12-07T22:37:41.855614+00:00", "meta": {"OBJECT_NAME": "STARLINK-35667", "OBJECT_ID": "2025-257W", "EPOCH": "2025-12-07T06:41:39.031872", "MEAN_MOTION": 15.46188684, "ECCENTRICITY": 0.00010928, "INCLINATION": 53.1585, "RA_OF_ASC_NODE": 289.8979, "ARG_OF_PERICENTER": 90.8536, "MEAN_ANOMALY": 269.2597, "EPHEMERIS_TYPE": 0, "CLASSIFICATION_TYPE": "U", "NORAD_CAT_ID": 66400, "ELEMENT_SET_NO": 999, "REV_AT_EPOCH": 553, "BSTAR": -0.01959782, "MEAN_MOTION_DOT": -0.009003, "MEAN_MOTION_DDOT": 0}, "tle": {"line1": "1 66400U 25257W   25341.27892398 -.00900300  00000+0 -19598-1 0  9996", "line2": "2 66400  53.1585 289.8979 0001092  90.8536 269.2597 15.46188684  5534"}}, "geometry": {"type": "Point", "coordinates": [27.107832150756327, 52.6852256985385]}}, {"type": "Feature", "properties": {"norad_id": 66401, "name": "STARLINK-35668", "group": "last-30-days", "lat": 52.05982655824558, "lon": 32.64264738202215, "alt_km": 423.30255235610366, "timestamp": "2025-12-07T22:37:41.855625+00:00", "meta": {"OBJECT_NAME": "STARLINK-35668", "OBJECT_ID": "2025-257X", "EPOCH": "2025-12-07T06:41:10.290912", "MEAN_MOTION": 15.46419698, "ECCENTRICITY": 0.0003137, "INCLINATION": 53.159, "RA_OF_ASC_NODE": 289.8963, "ARG_OF_PERICENTER": 302.2688, "MEAN_ANOMALY": 57.8016, "EPHEMERIS_TYPE": 0, "CLASSIFICATION_TYPE": "U", "NORAD_CAT_ID": 66401, "ELEMENT_SET_NO": 999, "REV_AT_EPOCH": 553, "BSTAR": -0.0059565103, "MEAN_MOTION_DOT": -0.00289191, "MEAN_MOTION_DDOT": 0}, "tle": {"line1": "1 66401U 25257X   25341.27859133 -.00289191  00000+0 -59565-2 0  9994", "line2": "2 66401  53.1590 289.8963 0003137 302.2688  57.8016 15.46419698  5533"}}, "geometry": {"type": "Point", "coordinates": [32.64264738202215, 52.05982655824558]}}, {"type": "Feature", "properties": {"norad_id": 66402, "name": "STARLINK-35644", "group": "last-30-days", "lat": 53.13860469016611, "lon": 16.242136293257076, "alt_km": 421.1053145137621, "timestamp": "2025-12-07T22:37:41.855636+00:00", "meta": {"OBJECT_NAME": "STARLINK-35644", "OBJECT_ID": "2025-257Y", "EPOCH": "2025-12-06T12:07:02.432928", "MEAN_MOTION": 15.46927873, "ECCENTRICITY": 0.00011866, "INCLINATION": 53.1593, "RA_OF_ASC_NODE": 293.6012, "ARG_OF_PERICENTER": 42.7895, "MEAN_ANOMALY": 317.3205, "EPHEMERIS_TYPE": 0, "CLASSIFICATION_TYPE": "U", "NORAD_CAT_ID": 66402, "ELEMENT_SET_NO": 999, "REV_AT_EPOCH": 541, "BSTAR": -0.0075990162, "MEAN_MOTION_DOT": -0.00371344, "MEAN_MOTION_DDOT": 0}, "tle": {"line1": "1 66402U 25257Y   25340.50488927 -.00371344  00000+0 -75990-2 0  9991", "line2": "2 66402  53.1593 293.6012 0001186  42.7895 317.3205 15.46927873  5413"}}, "geometry": {"type": "Point", "coordinates": [16.242136293257076, 53.13860469016611]}}, {"type": "Feature", "properties": {"norad_id": 66403, "name": "STARLINK-35602", "group": "last-30-days", "lat": 47.55591381690448, "lon": 51.64665317315391, "alt_km": 413.61556248636407, "timestamp": "2025-12-07T22:37:41.855647+00:00", "meta": {"OBJECT_NAME": "STARLINK-35602", "OBJECT_ID": "2025-257Z", "EPOCH": "2025-12-07T06:39:25.443648", "MEAN_MOTION": 15.48929279, "ECCENTRICITY": 0.00013512, "INCLINATION": 53.1608, "RA_OF_ASC_NODE": 289.8875, "ARG_OF_PERICENTER": 55.6057, "MEAN_ANOMALY": 304.508, "EPHEMERIS_TYPE": 0, "CLASSIFICATION_TYPE": "U", "NORAD_CAT_ID": 66403, "ELEMENT_SET_NO": 999, "REV_AT_EPOCH": 553, "BSTAR": -0.0032004591, "MEAN_MOTION_DOT": -0.00172268, "MEAN_MOTION_DDOT": 0}, "tle": {"line1": "1 66403U 25257Z   25341.27737782 -.00172268  00000+0 -32005-2 0  9997", "line2": "2 66403  53.1608 289.8875 0001351  55.6057 304.5080 15.48929279  5538"}}, "geometry": {"type": "Point", "coordinates": [51.64665317315391, 47.55591381690448]}}, {"type": "Feature", "properties": {"norad_id": 66404, "name": "STARLINK-35691", "group": "last-30-days", "lat": 45.84852603337306, "lon": 56.14168970115741, "alt_km": 411.1271457954317, "timestamp": "2025-12-07T22:37:41.855658+00:00", "meta": {"OBJECT_NAME": "STARLINK-35691", "OBJECT_ID": "2025-257AA", "EPOCH": "2025-12-07T03:33:03.888288", "MEAN_MOTION": 15.4926064, "ECCENTRICITY": 0.00017049, "INCLINATION": 53.1596, "RA_OF_ASC_NODE": 290.5022, "ARG_OF_PERICENTER": 106.4863, "MEAN_ANOMALY": 253.6333, "EPHEMERIS_TYPE": 0, "CLASSIFICATION_TYPE": "U", "NORAD_CAT_ID": 66404, "ELEMENT_SET_NO": 999, "REV_AT_EPOCH": 551, "BSTAR": 0.0019210549, "MEAN_MOTION_DOT": 0.00107694, "MEAN_MOTION_DDOT": 0}, "tle": {"line1": "1 66404U 25257AA  25341.14796167  .00107694  00000+0  19211-2 0  9999", "line2": "2 66404  53.1596 290.5022 0001704 106.4863 253.6333 15.49260640  5514"}}, "geometry": {"type": "Point", "coordinates": [56.14168970115741, 45.84852603337306]}}, {"type": "Feature", "properties": {"norad_id": 66405, "name": "STARLINK-35683", "group": "last-30-days", "lat": 44.75249450858974, "lon": 58.68715229478355, "alt_km": 412.08629346178986, "timestamp": "2025-12-07T22:37:41.855669+00:00", "meta": {"OBJECT_NAME": "STARLINK-35683", "OBJECT_ID": "2025-257AB", "EPOCH": "2025-12-07T06:38:21.607872", "MEAN_MOTION": 15.49385412, "ECCENTRICITY": 9.049e-05, "INCLINATION": 53.1609, "RA_OF_ASC_NODE": 289.8828, "ARG_OF_PERICENTER": 40.8306, "MEAN_ANOMALY": 319.2771, "EPHEMERIS_TYPE": 0, "CLASSIFICATION_TYPE": "U", "NORAD_CAT_ID": 66405, "ELEMENT_SET_NO": 999, "REV_AT_EPOCH": 546, "BSTAR": 0.0014787582, "MEAN_MOTION_DOT": 0.00082894, "MEAN_MOTION_DDOT": 0}, "tle": {"line1": "1 66405U 25257AB  25341.27663898  .00082894  00000+0  14788-2 0  9996", "line2": "2 66405  53.1609 289.8828 0000904  40.8306 319.2771 15.49385412  5463"}}, "geometry": {"type": "Point", "coordinates": [58.68715229478355, 44.75249450858974]}}]}